NORAD_CAT_ID,OBJECT_NAME,OBJECT_TYPE,EPOCH,MEAN_MOTION,ECCENTRICITY,INCLINATION,RA_OF_ASC_NODE,ARG_OF_PERICENTER,MEAN_ANOMALY,BSTAR,MEAN_MOTION_DOT,MEAN_MOTION_DDOT,TLE_LINE0,TLE_LINE1,TLE_LINE2,SEMIMAJOR_AXIS,PERIOD,APOGEE,PERIGEE,DECAYED
51789.0,STARLINK-3639,PAYLOAD,2024-02-28 07:04:59,15.08839475,0.0001654,53.2178,72.8802,99.2535,260.8644,9.3324e-05,1.198e-05,0.0,0 STARLINK-3639,1 51789U 22017X   24059.29512982  .00001198  00000-0  93324-4 0  9994,2 51789  53.2178  72.8802 0001654  99.2535 260.8644 15.08839475110501,6917.882,95.438,540.891,538.603,0.0
51789.0,STARLINK-3639,PAYLOAD,2024-02-28 18:12:41,15.08837759,0.0001595,53.2175,70.7975,87.9956,272.1219,0.00010814,1.433e-05,0.0,0 STARLINK-3639,1 51789U 22017X   24059.75881070  .00001433  00000-0  10814-3 0  9996,2 51789  53.2175  70.7975 0001595  87.9956 272.1219 15.08837759110575,6917.887,95.438,540.856,538.649,0.0
51789.0,STARLINK-3639,PAYLOAD,2024-02-29 05:20:22,15.08846151,0.0001565,53.2175,68.7158,106.0799,254.0366,3.6157e-05,2.88e-06,0.0,0 STARLINK-3639,1 51789U 22017X   24060.22248582  .00000288  00000-0  36157-4 0  9991,2 51789  53.2175  68.7158 0001565 106.0799 254.0366 15.08846151112299,6917.862,95.437,540.809,538.644,0.0
51789.0,STARLINK-3639,PAYLOAD,2024-02-29 10:06:31,15.08848341,0.0001583,53.2177,67.8233,97.8154,262.3018,6.1654e-05,6.94e-06,0.0,0 STARLINK-3639,1 51789U 22017X   24060.42120317  .00000694  00000-0  61654-4 0  9999,2 51789  53.2177  67.8233 0001583  97.8154 262.3018 15.08848341110676,6917.855,95.437,540.815,538.625,0.0
51789.0,STARLINK-3639,PAYLOAD,2024-02-29 18:03:28,15.08840954,0.0001528,53.2174,66.3341,95.9075,264.2092,-2.0812e-05,-6.19e-06,0.0,0 STARLINK-3639,1 51789U 22017X   24060.75240869 -.00000619  00000-0 -20812-4 0  9990,2 51789  53.2174  66.3341 0001528  95.9075 264.2092 15.08840954112371,6917.877,95.437,540.8,538.685,0.0
51789.0,STARLINK-3639,PAYLOAD,2024-03-01 09:57:19,15.08835549,0.0001545,53.2174,63.3626,99.9672,260.1494,0.00010181,1.332e-05,0.0,0 STARLINK-3639,1 51789U 22017X   24061.41481115  .00001332  00000-0  10181-3 0  9993,2 51789  53.2174  63.3626 0001545  99.9672 260.1494 15.08835549110823,6917.894,95.438,540.828,538.69,0.0
51789.0,STARLINK-3639,PAYLOAD,2024-03-02 03:26:33,15.08844879,0.0001514,53.2173,60.0915,99.4954,260.6209,6.6461e-05,7.7e-06,0.0,0 STARLINK-3639,1 51789U 22017X   24062.14344486  .00000770  00000-0  66461-4 0  9991,2 51789  53.2173  60.0915 0001514  99.4954 260.6209 15.08844879112581,6917.865,95.437,540.778,538.683,0.0
51789.0,STARLINK-3639,PAYLOAD,2024-03-02 06:37:19,15.08852365,0.0001561,53.218,59.4964,99.238,260.8789,6.0867e-05,6.81e-06,0.0,0 STARLINK-3639,1 51789U 22017X   24062.27592083  .00000681  00000-0  60867-4 0  9998,2 51789  53.2180  59.4964 0001561  99.2380 260.8789 15.08852365110951,6917.843,95.437,540.787,538.628,0.0
51789.0,STARLINK-3639,PAYLOAD,2024-03-03 04:52:44,15.08836741,0.0001812,53.2186,55.3342,101.5522,258.5674,4.0163e-05,3.51e-06,0.0,0 STARLINK-3639,1 51789U 22017X   24063.20329211  .00000351  00000-0  40163-4 0  9994,2 51789  53.2186  55.3342 0001812 101.5522 258.5674 15.08836741112742,6917.89,95.438,541.009,538.502,0.0
51789.0,STARLINK-3639,PAYLOAD,2024-03-03 06:28:07,15.08831048,0.0001393,53.219,55.0408,95.7661,264.349,0.00015115,2.118e-05,0.0,0 STARLINK-3639,1 51789U 22017X   24063.26953294  .00002118  00000-0  15115-3 0  9995,2 51789  53.2190  55.0408 0001393  95.7661 264.3490 15.08831048111104,6917.908,95.438,540.736,538.809,0.0
51789.0,STARLINK-3639,PAYLOAD,2024-03-04 06:18:55,15.08784894,0.0002203,53.2193,50.582,110.432,249.6909,0.00069845,0.00010829,0.0,0 STARLINK-3639,1 51789U 22017X   24064.26314540  .00010829  00000-0  69845-3 0  9998,2 51789  53.2193  50.5820 0002203 110.4320 249.6909 15.08784894112909,6918.049,95.441,541.438,538.39,0.0
51789.0,STARLINK-3639,PAYLOAD,2024-03-04 15:51:13,15.08840913,0.000162,53.2182,48.7954,121.1831,238.9321,-3.9873e-05,-9.23e-06,0.0,0 STARLINK-3639,1 51789U 22017X   24064.66057287 -.00000923  00000-0 -39873-4 0  9999,2 51789  53.2182  48.7954 0001620 121.1831 238.9321 15.08840913112962,6917.878,95.437,540.863,538.622,0.0
51789.0,STARLINK-3639,PAYLOAD,2024-03-05 02:58:56,15.08826663,0.0001817,53.2191,46.713,89.8417,270.2783,-2.1064e-05,-6.23e-06,0.0,0 STARLINK-3639,1 51789U 22017X   24065.12426727 -.00000623  00000-0 -21064-4 0  9990,2 51789  53.2191  46.7130 0001817  89.8417 270.2783 15.08826663113030,6917.921,95.438,541.043,538.529,0.0
51789.0,STARLINK-3639,PAYLOAD,2024-03-05 07:45:06,15.08827998,0.0001542,53.2186,45.8198,84.8768,275.24,-1.931e-05,-5.95e-06,0.0,0 STARLINK-3639,1 51789U 22017X   24065.32298737 -.00000595  00000-0 -19310-4 0  9999,2 51789  53.2186  45.8198 0001542  84.8768 275.2400 15.08827998111410,6917.917,95.438,540.849,538.715,0.0
51789.0,STARLINK-3639,PAYLOAD,2024-03-05 15:42:01,15.0883618,0.0001552,53.2192,44.3326,87.9644,272.1526,6.7577e-05,7.88e-06,0.0,0 STARLINK-3639,1 51789U 22017X   24065.65418124  .00000788  00000-0  67577-4 0  9999,2 51789  53.2192  44.3326 0001552  87.9644 272.1526 15.08836180113119,6917.892,95.438,540.831,538.683,0.0
51789.0,STARLINK-3639,PAYLOAD,2024-03-06 04:25:05,15.08842708,0.0001337,53.2176,41.9547,79.4025,280.7118,0.00021201,3.088e-05,0.0,0 STARLINK-3639,1 51789U 22017X   24066.18409472  .00003088  00000-0  21201-3 0  9993,2 51789  53.2176  41.9547 0001337  79.4025 280.7118 15.08842708113192,6917.872,95.437,540.662,538.812,0.0
51789.0,STARLINK-3639,PAYLOAD,2024-03-06 06:00:28,15.08850825,0.0001416,53.2181,41.6574,92.2997,267.8157,0.0001641,2.325e-05,0.0,0 STARLINK-3639,1 51789U 22017X   24066.25033136  .00002325  00000-0  16410-3 0  9990,2 51789  53.2181  41.6574 0001416  92.2997 267.8157 15.08850825111550,6917.847,95.437,540.692,538.733,0.0
51789.0,STARLINK-3639,PAYLOAD,2024-03-07 04:15:53,15.08835913,0.0001375,53.2182,37.4945,92.1825,267.9324,0.00019858,2.874e-05,0.0,0 STARLINK-3639,1 51789U 22017X   24067.17770278  .00002874  00000-0  19858-3 0  9995,2 51789  53.2182  37.4945 0001375  92.1825 267.9324 15.08835913113346,6917.893,95.438,540.709,538.807,0.0
51789.0,STARLINK-3639,PAYLOAD,2024-03-07 07:26:39,15.08844761,0.0001289,53.2178,36.8989,94.1177,265.9962,0.00015238,2.138e-05,0.0,0 STARLINK-3639,1 51789U 22017X   24067.31017891  .00002138  00000-0  15238-3 0  9997,2 51789  53.2178  36.8989 0001289  94.1177 265.9962 15.08844761111714,6917.866,95.437,540.623,538.839,0.0
51789.0,STARLINK-3639,PAYLOAD,2024-03-08 04:06:40,15.08843805,0.0001501,53.2187,33.0317,93.1559,266.9604,-4.4673e-05,-9.99e-06,0.0,0 STARLINK-3639,1 51789U 22017X   24068.17129674 -.00000999  00000-0 -44673-4 0  9996,2 51789  53.2187  33.0317 0001501  93.1559 266.9604 15.08843805111844,6917.869,95.437,540.772,538.695,0.0
51789.0,STARLINK-3639,PAYLOAD,2024-03-08 21:35:54,15.08842109,0.0001562,53.2187,29.7597,102.6261,257.4906,0.00010327,1.356e-05,0.0,0 STARLINK-3639,1 51789U 22017X   24068.89993845  .00001356  00000-0  10327-3 0  9998,2 51789  53.2187  29.7597 0001562 102.6261 257.4906 15.08842109111957,6917.874,95.437,540.82,538.658,0.0
51789.0,STARLINK-3639,PAYLOAD,2024-03-09 03:57:27,15.08840776,0.0001557,53.2188,28.5728,90.9065,269.2106,7.0369e-05,8.32e-06,0.0,0 STARLINK-3639,1 51789U 22017X   24069.16490007  .00000832  00000-0  70369-4 0  9992,2 51789  53.2188  28.5728 0001557  90.9065 269.2106 15.08840776113645,6917.878,95.438,540.82,538.666,0.0
51789.0,STARLINK-3639,PAYLOAD,2024-03-09 07:08:13,15.08843333,0.0001548,53.2189,27.9781,89.5118,270.6052,0.00013028,1.786e-05,0.0,0 STARLINK-3639,1 51789U 22017X   24069.29737928  .00001786  00000-0  13028-3 0  9999,2 51789  53.2189  27.9781 0001548  89.5118 270.6052 15.08843333112019,6917.87,95.437,540.806,538.664,0.0
51789.0,STARLINK-3639,PAYLOAD,2024-03-10 03:48:14,15.08834654,0.0001328,53.2189,24.1119,92.278,267.8364,6.7561e-05,7.87e-06,0.0,0 STARLINK-3639,1 51789U 22017X   24070.15850442  .00000787  00000-0  67561-4 0  9995,2 51789  53.2189  24.1119 0001328  92.2780 267.8364 15.08834654113791,6917.897,95.438,540.68,538.843,0.0
51789.0,STARLINK-3639,PAYLOAD,2024-03-10 13:20:33,15.08842538,0.000145,53.2188,22.3287,95.7426,264.3731,0.00012522,1.706e-05,0.0,0 STARLINK-3639,1 51789U 22017X   24070.55594064  .00001706  00000-0  12522-3 0  9992,2 51789  53.2188  22.3287 0001450  95.7426 264.3731 15.08842538112202,6917.873,95.437,540.741,538.735,0.0
51789.0,STARLINK-3639,PAYLOAD,2024-03-10 21:17:29,15.08836083,0.000163,53.22,20.844,96.3629,263.7549,0.00010317,1.354e-05,0.0,0 STARLINK-3639,1 51789U 22017X   24070.88714530  .00001354  00000-0  10317-3 0  9999,2 51789  53.2200  20.8440 0001630  96.3629 263.7549 15.08836083112256,6917.892,95.438,540.885,538.63,0.0
51789.0,STARLINK-3639,PAYLOAD,2024-03-11 13:11:19,15.08851074,0.0001443,53.2196,17.8671,86.9721,273.1436,0.00022065,3.226e-05,0.0,0 STARLINK-3639,1 51789U 22017X   24071.54953667  .00003226  00000-0  22065-3 0  9992,2 51789  53.2196  17.8671 0001443  86.9721 273.1436 15.08851074114004,6917.847,95.437,540.71,538.713,0.0
51789.0,STARLINK-3639,PAYLOAD,2024-03-12 05:05:12,15.08836022,0.0001532,53.2199,14.895,86.9491,273.1676,4.6833e-05,4.57e-06,0.0,0 STARLINK-3639,1 51789U 22017X   24072.21194709  .00000457  00000-0  46833-4 0  9994,2 51789  53.2199  14.8950 0001532  86.9491 273.1676 15.08836022114100,6917.893,95.438,540.817,538.698,0.0
51789.0,STARLINK-3639,PAYLOAD,2024-03-12 13:02:07,15.08844708,0.0001533,53.2201,13.4082,90.0413,270.0755,0.00012149,1.646e-05,0.0,0 STARLINK-3639,1 51789U 22017X   24072.54314250  .00001646  00000-0  12149-3 0  9998,2 51789  53.2201  13.4082 0001533  90.0413 270.0755 15.08844708114155,6917.866,95.437,540.792,538.67,0.0
51789.0,STARLINK-3639,PAYLOAD,2024-03-13 12:52:53,15.0886023,0.0001506,53.2191,8.9432,76.3287,283.7873,0.0002729,4.06e-05,0.0,0 STARLINK-3639,1 51789U 22017X   24073.53673416  .00004060  00000-0  27290-3 0  9996,2 51789  53.2191   8.9432 0001506  76.3287 283.7873 15.08860230112650,6917.819,95.436,540.725,538.642,0.0
